SAUDISAT 1C (SO-50)     
1 27607U 02058C   26156.35454122  .00001035  00000+0  13927-3 0  9996
2 27607  64.5503 165.5947 0075494 264.6340  94.6150 14.83020071262706
SAUDISAT 2              
1 28371U 04025F   26156.90129000  .00000335  00000+0  85854-4 0  9997
2 28371  98.5506 156.5917 0024147 334.1568  25.8421 14.56677279164106
SAUDISAT 3              
1 31118U 07012B   26156.83429878  .00000345  00000+0  63912-4 0  9999
2 31118  98.1451 107.2278 0013265 263.3121  96.6575 14.71419019 26076
PISAT                   
1 41784U 16059B   26156.90486528  .00001096  00000+0  19424-3 0  9995
2 41784  97.8178 157.8427 0027650 240.1718 119.6739 14.68964111518082
FLYING LAPTOP           
1 42831U 17042G   26157.25340316  .00003816  00000+0  30174-3 0  9992
2 42831  97.4648 313.2109 0018992 157.4267 202.7797 15.01071612484811
SALSAT                  
1 46495U 20068K   26156.50196863  .00008465  00000+0  29742-3 0  9991
2 46495  97.8853 158.8572 0009210 354.5258   5.5879 15.29623212313576
